{
  "type": "FeatureCollection",
  "features": [
    {
      "type": "Feature",
      "properties": {
        "norad_id": 66418,
        "name": "HULIANWANG DIGUI 13G",
        "group": "last-30-days",
        "lat": 3.5778224820456765,
        "lon": -71.5665192113769,
        "alt_km": 808.3421153694862,
        "timestamp": "2025-12-07T03:52:31.202580+00:00",
        "meta_object_name": "HULIANWANG DIGUI 13G",
        "meta_object_id": "2025-258G",
        "meta_epoch": "2025-12-05T21:30:39.941568",
        "meta_mean_motion": 14.22784746,
        "meta_eccentricity": 0.00116654,
        "meta_inclination": 50.0022,
        "meta_ra_of_asc_node": 290.7431,
        "meta_arg_of_pericenter": 336.1209,
        "meta_mean_anomaly": 23.9161,
        "meta_ephemeris_type": 0,
        "meta_classification_type": "U",
        "meta_norad_cat_id": 66418,
        "meta_element_set_no": 999,
        "meta_rev_at_epoch": 368,
        "meta_bstar": 0.00031844208,
        "meta_mean_motion_dot": 5.6e-06,
        "meta_mean_motion_ddot": 0,
        "tle_line1": "1 66418U 25258G   25339.89629562  .00000560  00000+0  31844-3 0  9999",
        "tle_line2": "2 66418  50.0022 290.7431 0011665 336.1209  23.9161 14.22784746  3689"
      },
      "geometry": {
        "type": "Point",
        "coordinates": [
          -71.5665192113769,
          3.5778224820456765
        ]
      }
    },
    {
      "type": "Feature",
      "properties": {
        "norad_id": 66419,
        "name": "HULIANWANG DIGUI 13H",
        "group": "last-30-days",
        "lat": 11.981905860572754,
        "lon": -64.33806908762926,
        "alt_km": 805.9155149350299,
        "timestamp": "2025-12-07T03:52:31.202591+00:00",
        "meta_object_name": "HULIANWANG DIGUI 13H",
        "meta_object_id": "2025-258H",
        "meta_epoch": "2025-12-05T14:43:51.252960",
        "meta_mean_motion": 14.23328519,
        "meta_eccentricity": 0.00120585,
        "meta_inclination": 50.0017,
        "meta_ra_of_asc_node": 291.9103,
        "meta_arg_of_pericenter": 334.7106,
        "meta_mean_anomaly": 25.3215,
        "meta_ephemeris_type": 0,
        "meta_classification_type": "U",
        "meta_norad_cat_id": 66419,
        "meta_element_set_no": 999,
        "meta_rev_at_epoch": 364,
        "meta_bstar": 0.00013377596,
        "meta_mean_motion_dot": 1.46e-06,
        "meta_mean_motion_ddot": 0,
        "tle_line1": "1 66419U 25258H   25339.61378765  .00000146  00000+0  13378-3 0  9998",
        "tle_line2": "2 66419  50.0017 291.9103 0012058 334.7106  25.3215 14.23328519  3645"
      },
      "geometry": {
        "type": "Point",
        "coordinates": [
          -64.33806908762926,
          11.981905860572754
        ]
      }
    },
    {
      "type": "Feature",
      "properties": {
        "norad_id": 66420,
        "name": "HULIANWANG DIGUI 13J",
        "group": "last-30-days",
        "lat": 15.375798560336863,
        "lon": -61.21298479989337,
        "alt_km": 805.5863281962165,
        "timestamp": "2025-12-07T03:52:31.202601+00:00",
        "meta_object_name": "HULIANWANG DIGUI 13J",
        "meta_object_id": "2025-258J",
        "meta_epoch": "2025-12-05T23:07:39.042912",
        "meta_mean_motion": 14.22956918,
        "meta_eccentricity": 0.00133221,
        "meta_inclination": 50.0158,
        "meta_ra_of_asc_node": 290.4806,
        "meta_arg_of_pericenter": 343.9613,
        "meta_mean_anomaly": 16.0876,
        "meta_ephemeris_type": 0,
        "meta_classification_type": "U",
        "meta_norad_cat_id": 66420,
        "meta_element_set_no": 999,
        "meta_rev_at_epoch": 368,
        "meta_bstar": 0.00030678625,
        "meta_mean_motion_dot": 5.36e-06,
        "meta_mean_motion_ddot": 0,
        "tle_line1": "1 66420U 25258J   25339.96364633  .00000536  00000+0  30679-3 0  9993",
        "tle_line2": "2 66420  50.0158 290.4806 0013322 343.9613  16.0876 14.22956918  3680"
      },
      "geometry": {
        "type": "Point",
        "coordinates": [
          -61.21298479989337,
          15.375798560336863
        ]
      }
    },
    {
      "type": "Feature",
      "properties": {
        "norad_id": 66421,
        "name": "CZ-12 R/B",
        "group": "last-30-days",
        "lat": -49.27905690088289,
        "lon": -155.1618112970397,
        "alt_km": 724.8659337146464,
        "timestamp": "2025-12-07T03:52:31.202613+00:00",
        "meta_object_name": "CZ-12 R/B",
        "meta_object_id": "2025-258K",
        "meta_epoch": "2025-12-06T14:57:02.602656",
        "meta_mean_motion": 14.42319758,
        "meta_eccentricity": 0.0064526,
        "meta_inclination": 49.9961,
        "meta_ra_of_asc_node": 284.4905,
        "meta_arg_of_pericenter": 227.4206,
        "meta_mean_anomaly": 132.1259,
        "meta_ephemeris_type": 0,
        "meta_classification_type": "U",
        "meta_norad_cat_id": 66421,
        "meta_element_set_no": 999,
        "meta_rev_at_epoch": 383,
        "meta_bstar": 0.00011927224,
        "meta_mean_motion_dot": 2.36e-06,
        "meta_mean_motion_ddot": 0,
        "tle_line1": "1 66421U 25258K   25340.62294679  .00000236  00000+0  11927-3 0  9993",
        "tle_line2": "2 66421  49.9961 284.4905 0064526 227.4206 132.1259 14.42319758  3838"
      },
      "geometry": {
        "type": "Point",
        "coordinates": [
          -155.1618112970397,
          -49.27905690088289
        ]
      }
    },
    {
      "type": "Feature",
      "properties": {
        "norad_id": 66422,
        "name": "STARLINK-35617",
        "group": "last-30-days",
        "lat": -40.69151390640428,
        "lon": 12.92313149868756,
        "alt_km": 446.9600418534865,
        "timestamp": "2025-12-07T03:52:31.202624+00:00",
        "meta_object_name": "STARLINK-35617",
        "meta_object_id": "2025-259A",
        "meta_epoch": "2025-12-06T14:00:01.999872",
        "meta_mean_motion": 15.40737163,
        "meta_eccentricity": 0.00010662,
        "meta_inclination": 43.0006,
        "meta_ra_of_asc_node": 83.5853,
        "meta_arg_of_pericenter": 297.2915,
        "meta_mean_anomaly": 19.4746,
        "meta_ephemeris_type": 0,
        "meta_classification_type": "U",
        "meta_norad_cat_id": 66422,
        "meta_element_set_no": 999,
        "meta_rev_at_epoch": 529,
        "meta_bstar": -0.0032340225,
        "meta_mean_motion_dot": -0.00133226,
        "meta_mean_motion_ddot": 0,
        "tle_line1": "1 66422U 25259A   25340.58335648 -.00133226  00000+0 -32340-2 0  9991",
        "tle_line2": "2 66422  43.0006  83.5853 0001066 297.2915  19.4746 15.40737163  5299"
      },
      "geometry": {
        "type": "Point",
        "coordinates": [
          12.92313149868756,
          -40.69151390640428
        ]
      }
    },
    {
      "type": "Feature",
      "properties": {
        "norad_id": 66423,
        "name": "STARLINK-35618",
        "group": "last-30-days",
        "lat": -36.420350814334824,
        "lon": 27.87298299404896,
        "alt_km": 446.64471104565473,
        "timestamp": "2025-12-07T03:52:31.202635+00:00",
        "meta_object_name": "STARLINK-35618",
        "meta_object_id": "2025-259B",
        "meta_epoch": "2025-12-06T14:00:01.999872",
        "meta_mean_motion": 15.40733112,
        "meta_eccentricity": 0.00011875,
        "meta_inclination": 43.0005,
        "meta_ra_of_asc_node": 83.5548,
        "meta_arg_of_pericenter": 267.4855,
        "meta_mean_anomaly": 61.7047,
        "meta_ephemeris_type": 0,
        "meta_classification_type": "U",
        "meta_norad_cat_id": 66423,
        "meta_element_set_no": 999,
        "meta_rev_at_epoch": 529,
        "meta_bstar": -0.0023969645,
        "meta_mean_motion_dot": -0.00099246,
        "meta_mean_motion_ddot": 0,
        "tle_line1": "1 66423U 25259B   25340.58335648 -.00099246  00000+0 -23970-2 0  9994",
        "tle_line2": "2 66423  43.0005  83.5548 0001187 267.4855  61.7047 15.40733112  5290"
      },
      "geometry": {
        "type": "Point",
        "coordinates": [
          27.87298299404896,
          -36.420350814334824
        ]
      }
    },
    {
      "type": "Feature",
      "properties": {
        "norad_id": 66424,
        "name": "STARLINK-35588",
        "group": "last-30-days",
        "lat": -30.508305178268316,
        "lon": 40.97227952517644,
        "alt_km": 446.38971397938894,
        "timestamp": "2025-12-07T03:52:31.202645+00:00",
        "meta_object_name": "STARLINK-35588",
        "meta_object_id": "2025-259C",
        "meta_epoch": "2025-12-06T14:00:01.999872",
        "meta_mean_motion": 15.40723929,
        "meta_eccentricity": 0.0001214,
        "meta_inclination": 43.0006,
        "meta_ra_of_asc_node": 83.5257,
        "meta_arg_of_pericenter": 265.6863,
        "meta_mean_anomaly": 75.9479,
        "meta_ephemeris_type": 0,
        "meta_classification_type": "U",
        "meta_norad_cat_id": 66424,
        "meta_element_set_no": 999,
        "meta_rev_at_epoch": 529,
        "meta_bstar": -0.0020542995,
        "meta_mean_motion_dot": -0.00085231,
        "meta_mean_motion_ddot": 0,
        "tle_line1": "1 66424U 25259C   25340.58335648 -.00085231  00000+0 -20543-2 0  9997",
        "tle_line2": "2 66424  43.0006  83.5257 0001214 265.6863  75.9479 15.40723929  5290"
      },
      "geometry": {
        "type": "Point",
        "coordinates": [
          40.97227952517644,
          -30.508305178268316
        ]
      }
    }
  ]
}